GLOBALSTAR M068         
1 32266U 07048D   25156.68210816 -.00000068  00000+0  19918-3 0  9994
2 32266  51.9901 337.3283 0001854 102.9702 353.4098 12.62824041816102
GLOBALSTAR M079         
1 37188U 10054A   25156.47890858 -.00000085  00000+0  10226-3 0  9992
2 37188  52.0009 175.4271 0000237 257.6871 260.7555 12.62264937675651
GLOBALSTAR M074         
1 37189U 10054B   25156.49683916 -.00000089  00000+0  79749-4 0  9990
2 37189  51.9986 174.6979 0000172  26.7949  92.2741 12.62270136675652
GLOBALSTAR M076         
1 37190U 10054C   25156.34164736 -.00000090  00000+0  78018-4 0  9990
2 37190  52.0000 175.3395 0000221 322.7312  51.1661 12.62263273675289
GLOBALSTAR M077         
1 37191U 10054D   25156.96656990 -.00000094  00000+0  54422-4 0  9994
2 37191  52.0049 130.2894 0000301  27.9013   6.8893 12.62268368675732
GLOBALSTAR M075         
1 37192U 10054E   25156.54104536 -.00000087  00000+0  95402-4 0  9998
2 37192  51.9929 216.9975 0000313 136.1133   4.0113 12.62265595674901
GLOBALSTAR M073         
1 37193U 10054F   25156.70638113 -.00000094  00000+0  57223-4 0  9997
2 37193  52.0039 130.3023 0000335   3.1461 168.2096 12.62271999676382
GLOBALSTAR M083         
1 37739U 11033A   25156.68746269 -.00000094  00000+0  52987-4 0  9992
2 37739  51.9863  79.1070 0000428  64.1938 320.7869 12.62263747645406
GLOBALSTAR M088         
1 37740U 11033B   25156.75303329 -.00000082  00000+0  12067-3 0  9999
2 37740  52.0064 344.4432 0000925  99.9847 343.7126 12.62265321640956
GLOBALSTAR M091         
1 37741U 11033C   25156.86084823 -.00000088  00000+0  87993-4 0  9994
2 37741  52.0009 307.6156 0000867 128.8678  25.0885 12.62268416641758
GLOBALSTAR M085         
1 37742U 11033D   25156.57915012 -.00000094  00000+0  56043-4 0  9995
2 37742  51.9869 259.5217 0000671 149.7230 223.9479 12.62268990642726
GLOBALSTAR M081         
1 37743U 11033E   25156.46157201 -.00000105  00000+0 -45541-5 0  9998
2 37743  51.9958 262.6611 0000493 151.5859 286.3838 12.62264323642367
GLOBALSTAR M089         
1 37744U 11033F   25156.48660213 -.00000093  00000+0  60776-4 0  9994
2 37744  51.9914 216.8136 0000226  86.3255 286.8650 12.62264431643214
GLOBALSTAR M084         
1 38040U 11080A   25156.74208454 -.00000097  00000+0  36206-4 0  9995
2 38040  52.0011  83.3155 0000817  37.0018 356.7311 12.62266559621229
GLOBALSTAR M080         
1 38041U 11080B   25156.78932837 -.00000103  00000+0  51758-5 0  9997
2 38041  52.0063  84.7592 0000732  91.7786 286.5509 12.62263311621358
GLOBALSTAR M082         
1 38042U 11080C   25156.64915738 -.00000094  00000+0  54938-4 0  9995
2 38042  52.0096  40.6466 0000858  99.5357 291.9897 12.62266421622047
GLOBALSTAR M092         
1 38043U 11080D   25156.93654043 -.00000113  00000+0 -48968-4 0  9996
2 38043  52.0071 130.1473 0000340  41.9554 336.1910 12.62264320620536
GLOBALSTAR M090         
1 38044U 11080E   25156.38927917 -.00000097  00000+0  40262-4 0  9998
2 38044  52.0143  35.2702 0000701  85.5408  85.2157 12.62273372622129
GLOBALSTAR M086         
1 38045U 11080F   25156.62312120 -.00000097  00000+0  36047-4 0  9996
2 38045  51.9918  35.0972 0000644 342.5848  51.7649 12.62271310622107
GLOBALSTAR M097         
1 39072U 13005A   25156.72131124 -.00000094  00000+0  52810-4 0  9993
2 39072  52.0059 309.3340 0000609 120.5547 239.5379 12.62272415569364
GLOBALSTAR M093         
1 39073U 13005B   25156.77407888 -.00000087  00000+0  95891-4 0  9990
2 39073  51.9822 302.4944 0000657 126.7375 233.3552 12.62265180569327
GLOBALSTAR M094         
1 39074U 13005C   25156.45736978 -.00000093  00000+0  60065-4 0  9993
2 39074  51.9943 217.8303 0000386 190.7878 169.2980 12.62262558570890
GLOBALSTAR M096         
1 39075U 13005D   25156.54974131 -.00000094  00000+0  54590-4 0  9996
2 39075  52.0077 266.0540 0000678 154.6699 205.4201 12.62271781569822
GLOBALSTAR M078         
1 39076U 13005E   25156.91916115 -.00000172  00000+0 -38211-3 0  9995
2 39076  51.9896 349.4539 0001417 125.9860 234.1138 12.62260836568496
GLOBALSTAR M095         
1 39077U 13005F   25156.70797566 -.00000086  00000+0  96915-4 0  9999
2 39077  51.9816 347.2989 0000939 125.9094 234.1860 12.62263458568328
GLOBALSTAR M087         
1 52888U 22064A   25156.42192670 -.00000091  00000+0  69209-4 0  9995
2 52888  51.9973 129.6169 0000182  54.4585 305.6299 12.62263513143556
